STARLINK-36768          
1 67803U 26032G   26058.25002315  .00030717  00000+0  16062-3 0  9991
2 67803  97.2851 244.2233 0001571  94.5612 137.8209 15.80804727  3105
STARLINK-36792          
1 67804U 26032H   26058.25002315 -.00038696  00000+0 -20212-3 0  9990
2 67804  97.2847 244.2264 0001590  91.9827 150.6262 15.80821156  3045
STARLINK-36782          
1 67805U 26032J   26058.25002315 -.00048133  00000+0 -25121-3 0  9992
2 67805  97.2850 244.2294 0001588  99.3210 147.9512 15.80877405  3100
STARLINK-36389          
1 67806U 26032K   26058.25002315 -.00079369  00000+0 -41673-3 0  9998
2 67806  97.2846 244.2314 0001246  88.3996 165.5818 15.80850661  3109
STARLINK-36382          
1 67807U 26032L   26058.25002315  .00014013  00000+0  73770-4 0  9996
2 67807  97.2846 244.2337 0002028  93.1061 166.3614 15.80816991  3045
STARLINK-36811          
1 67808U 26032M   26058.25002315 -.00067925  00000+0 -35618-3 0  9997
2 67808  97.2844 244.2364 0001709  88.6137 177.5415 15.80842341  3100
STARLINK-36795          
1 67809U 26032N   26058.25002315 -.00039069  00000+0 -20401-3 0  9990
2 67809  97.2847 244.2393 0001018  96.1384 176.4363 15.80830499  3108
STARLINK-36807          
1 67810U 26032P   26058.25002315 -.00027484  00000+0 -14312-3 0  9994
2 67810  97.2843 244.2408 0001821  84.7596 193.1154 15.80826024  3106
STARLINK-36733          
1 67811U 26032Q   26058.25002315 -.00041241  00000+0 -21553-3 0  9997
2 67811  97.2841 244.2434 0001498  93.3545 191.5981 15.80820506  3103
STARLINK-36377          
1 67812U 26032R   26058.25002315 -.00197136  00000+0 -10475-2 0  9993
2 67812  97.2839 244.2517 0001369  64.8632 238.0801 15.80906003  3105
STARLINK-36732          
1 67813U 26032S   26058.25002315 -.00054080  00000+0 -28296-3 0  9995
2 67813  97.2835 244.2479 0001659  78.3804 219.0797 15.80844260  3101
STARLINK-36767          
1 67814U 26032T   26058.25002315 -.00010504  00000+0 -54186-4 0  9997
2 67814  97.2837 244.2462 0001246  84.1616 207.9699 15.80807696  3103
