CCSDS_OMM_VERS = 2.0
CREATION_DATE  = 
ORIGINATOR     = 

OBJECT_NAME    = STARLINK-36768
OBJECT_ID      = 2026-032G
CENTER_NAME    = EARTH
REF_FRAME      = TEME
TIME_SYSTEM    = UTC
MEAN_ELEMENT_THEORY = SGP/SGP4

EPOCH          = 2026-02-27T06:00:02.000160
MEAN_MOTION    = 15.80804727
ECCENTRICITY   = .00015717
INCLINATION    = 97.2851
RA_OF_ASC_NODE = 244.2233
ARG_OF_PERICENTER = 94.5612
MEAN_ANOMALY   = 137.8209

EPHEMERIS_TYPE = 0
CLASSIFICATION_TYPE = U
NORAD_CAT_ID   = 67803
ELEMENT_SET_NO = 999
REV_AT_EPOCH   = 310
BSTAR          = .16061537E-3
MEAN_MOTION_DOT = .30717E-3
MEAN_MOTION_DDOT = 0

CCSDS_OMM_VERS = 2.0
CREATION_DATE  = 
ORIGINATOR     = 

OBJECT_NAME    = STARLINK-36792
OBJECT_ID      = 2026-032H
CENTER_NAME    = EARTH
REF_FRAME      = TEME
TIME_SYSTEM    = UTC
MEAN_ELEMENT_THEORY = SGP/SGP4

EPOCH          = 2026-02-27T06:00:02.000160
MEAN_MOTION    = 15.80821156
ECCENTRICITY   = .00015901
INCLINATION    = 97.2847
RA_OF_ASC_NODE = 244.2264
ARG_OF_PERICENTER = 91.9827
MEAN_ANOMALY   = 150.6262

EPHEMERIS_TYPE = 0
CLASSIFICATION_TYPE = U
NORAD_CAT_ID   = 67804
ELEMENT_SET_NO = 999
REV_AT_EPOCH   = 304
BSTAR          = -.202118E-3
MEAN_MOTION_DOT = -.38696E-3
MEAN_MOTION_DDOT = 0

CCSDS_OMM_VERS = 2.0
CREATION_DATE  = 
ORIGINATOR     = 

OBJECT_NAME    = STARLINK-36782
OBJECT_ID      = 2026-032J
CENTER_NAME    = EARTH
REF_FRAME      = TEME
TIME_SYSTEM    = UTC
MEAN_ELEMENT_THEORY = SGP/SGP4

EPOCH          = 2026-02-27T06:00:02.000160
MEAN_MOTION    = 15.80877405
ECCENTRICITY   = .00015886
INCLINATION    = 97.2850
RA_OF_ASC_NODE = 244.2294
ARG_OF_PERICENTER = 99.3210
MEAN_ANOMALY   = 147.9512

EPHEMERIS_TYPE = 0
CLASSIFICATION_TYPE = U
NORAD_CAT_ID   = 67805
ELEMENT_SET_NO = 999
REV_AT_EPOCH   = 310
BSTAR          = -.25121286E-3
MEAN_MOTION_DOT = -.48133E-3
MEAN_MOTION_DDOT = 0

CCSDS_OMM_VERS = 2.0
CREATION_DATE  = 
ORIGINATOR     = 

OBJECT_NAME    = STARLINK-36389
OBJECT_ID      = 2026-032K
CENTER_NAME    = EARTH
REF_FRAME      = TEME
TIME_SYSTEM    = UTC
MEAN_ELEMENT_THEORY = SGP/SGP4

EPOCH          = 2026-02-27T06:00:02.000160
MEAN_MOTION    = 15.80850661
ECCENTRICITY   = .00012462
INCLINATION    = 97.2846
RA_OF_ASC_NODE = 244.2314
ARG_OF_PERICENTER = 88.3996
MEAN_ANOMALY   = 165.5818

EPHEMERIS_TYPE = 0
CLASSIFICATION_TYPE = U
NORAD_CAT_ID   = 67806
ELEMENT_SET_NO = 999
REV_AT_EPOCH   = 310
BSTAR          = -.41673073E-3
MEAN_MOTION_DOT = -.79369E-3
MEAN_MOTION_DDOT = 0

CCSDS_OMM_VERS = 2.0
CREATION_DATE  = 
ORIGINATOR     = 

OBJECT_NAME    = STARLINK-36382
OBJECT_ID      = 2026-032L
CENTER_NAME    = EARTH
REF_FRAME      = TEME
TIME_SYSTEM    = UTC
MEAN_ELEMENT_THEORY = SGP/SGP4

EPOCH          = 2026-02-27T06:00:02.000160
MEAN_MOTION    = 15.80816991
ECCENTRICITY   = .00020287
INCLINATION    = 97.2846
RA_OF_ASC_NODE = 244.2337
ARG_OF_PERICENTER = 93.1061
MEAN_ANOMALY   = 166.3614

EPHEMERIS_TYPE = 0
CLASSIFICATION_TYPE = U
NORAD_CAT_ID   = 67807
ELEMENT_SET_NO = 999
REV_AT_EPOCH   = 304
BSTAR          = .73769709E-4
MEAN_MOTION_DOT = .14013E-3
MEAN_MOTION_DDOT = 0

CCSDS_OMM_VERS = 2.0
CREATION_DATE  = 
ORIGINATOR     = 

OBJECT_NAME    = STARLINK-36811
OBJECT_ID      = 2026-032M
CENTER_NAME    = EARTH
REF_FRAME      = TEME
TIME_SYSTEM    = UTC
MEAN_ELEMENT_THEORY = SGP/SGP4

EPOCH          = 2026-02-27T06:00:02.000160
MEAN_MOTION    = 15.80842341
ECCENTRICITY   = .00017091
INCLINATION    = 97.2844
RA_OF_ASC_NODE = 244.2364
ARG_OF_PERICENTER = 88.6137
MEAN_ANOMALY   = 177.5415

EPHEMERIS_TYPE = 0
CLASSIFICATION_TYPE = U
NORAD_CAT_ID   = 67808
ELEMENT_SET_NO = 999
REV_AT_EPOCH   = 310
BSTAR          = -.35618224E-3
MEAN_MOTION_DOT = -.67925E-3
MEAN_MOTION_DDOT = 0

CCSDS_OMM_VERS = 2.0
CREATION_DATE  = 
ORIGINATOR     = 

OBJECT_NAME    = STARLINK-36795
OBJECT_ID      = 2026-032N
CENTER_NAME    = EARTH
REF_FRAME      = TEME
TIME_SYSTEM    = UTC
MEAN_ELEMENT_THEORY = SGP/SGP4

EPOCH          = 2026-02-27T06:00:02.000160
MEAN_MOTION    = 15.80830499
ECCENTRICITY   = .00010182
INCLINATION    = 97.2847
RA_OF_ASC_NODE = 244.2393
ARG_OF_PERICENTER = 96.1384
MEAN_ANOMALY   = 176.4363

EPHEMERIS_TYPE = 0
CLASSIFICATION_TYPE = U
NORAD_CAT_ID   = 67809
ELEMENT_SET_NO = 999
REV_AT_EPOCH   = 310
BSTAR          = -.20400889E-3
MEAN_MOTION_DOT = -.39069E-3
MEAN_MOTION_DDOT = 0

CCSDS_OMM_VERS = 2.0
CREATION_DATE  = 
ORIGINATOR     = 

OBJECT_NAME    = STARLINK-36807
OBJECT_ID      = 2026-032P
CENTER_NAME    = EARTH
REF_FRAME      = TEME
TIME_SYSTEM    = UTC
MEAN_ELEMENT_THEORY = SGP/SGP4

EPOCH          = 2026-02-27T06:00:02.000160
MEAN_MOTION    = 15.80826024
ECCENTRICITY   = .00018218
INCLINATION    = 97.2843
RA_OF_ASC_NODE = 244.2408
ARG_OF_PERICENTER = 84.7596
MEAN_ANOMALY   = 193.1154

EPHEMERIS_TYPE = 0
CLASSIFICATION_TYPE = U
NORAD_CAT_ID   = 67810
ELEMENT_SET_NO = 999
REV_AT_EPOCH   = 310
BSTAR          = -.14311709E-3
MEAN_MOTION_DOT = -.27484E-3
MEAN_MOTION_DDOT = 0

CCSDS_OMM_VERS = 2.0
CREATION_DATE  = 
ORIGINATOR     = 

OBJECT_NAME    = STARLINK-36733
OBJECT_ID      = 2026-032Q
CENTER_NAME    = EARTH
REF_FRAME      = TEME
TIME_SYSTEM    = UTC
MEAN_ELEMENT_THEORY = SGP/SGP4

EPOCH          = 2026-02-27T06:00:02.000160
MEAN_MOTION    = 15.80820506
ECCENTRICITY   = .00014985
INCLINATION    = 97.2841
RA_OF_ASC_NODE = 244.2434
ARG_OF_PERICENTER = 93.3545
MEAN_ANOMALY   = 191.5981

EPHEMERIS_TYPE = 0
CLASSIFICATION_TYPE = U
NORAD_CAT_ID   = 67811
ELEMENT_SET_NO = 999
REV_AT_EPOCH   = 310
BSTAR          = -.21553058E-3
MEAN_MOTION_DOT = -.41241E-3
MEAN_MOTION_DDOT = 0

CCSDS_OMM_VERS = 2.0
CREATION_DATE  = 
ORIGINATOR     = 

OBJECT_NAME    = STARLINK-36377
OBJECT_ID      = 2026-032R
CENTER_NAME    = EARTH
REF_FRAME      = TEME
TIME_SYSTEM    = UTC
MEAN_ELEMENT_THEORY = SGP/SGP4

EPOCH          = 2026-02-27T06:00:02.000160
MEAN_MOTION    = 15.80906003
ECCENTRICITY   = .0001369
INCLINATION    = 97.2839
RA_OF_ASC_NODE = 244.2517
ARG_OF_PERICENTER = 64.8632
MEAN_ANOMALY   = 238.0801

EPHEMERIS_TYPE = 0
CLASSIFICATION_TYPE = U
NORAD_CAT_ID   = 67812
ELEMENT_SET_NO = 999
REV_AT_EPOCH   = 310
BSTAR          = -.10474731E-2
MEAN_MOTION_DOT = -.197136E-2
MEAN_MOTION_DDOT = 0

CCSDS_OMM_VERS = 2.0
CREATION_DATE  = 
ORIGINATOR     = 

OBJECT_NAME    = STARLINK-36732
OBJECT_ID      = 2026-032S
CENTER_NAME    = EARTH
REF_FRAME      = TEME
TIME_SYSTEM    = UTC
MEAN_ELEMENT_THEORY = SGP/SGP4

EPOCH          = 2026-02-27T06:00:02.000160
MEAN_MOTION    = 15.80844260
ECCENTRICITY   = .00016594
INCLINATION    = 97.2835
RA_OF_ASC_NODE = 244.2479
ARG_OF_PERICENTER = 78.3804
MEAN_ANOMALY   = 219.0797

EPHEMERIS_TYPE = 0
CLASSIFICATION_TYPE = U
NORAD_CAT_ID   = 67813
ELEMENT_SET_NO = 999
REV_AT_EPOCH   = 310
BSTAR          = -.28296159E-3
MEAN_MOTION_DOT = -.5408E-3
MEAN_MOTION_DDOT = 0

CCSDS_OMM_VERS = 2.0
CREATION_DATE  = 
ORIGINATOR     = 

OBJECT_NAME    = STARLINK-36767
OBJECT_ID      = 2026-032T
CENTER_NAME    = EARTH
REF_FRAME      = TEME
TIME_SYSTEM    = UTC
MEAN_ELEMENT_THEORY = SGP/SGP4

EPOCH          = 2026-02-27T06:00:02.000160
MEAN_MOTION    = 15.80807696
ECCENTRICITY   = .00012467
INCLINATION    = 97.2837
RA_OF_ASC_NODE = 244.2462
ARG_OF_PERICENTER = 84.1616
MEAN_ANOMALY   = 207.9699

EPHEMERIS_TYPE = 0
CLASSIFICATION_TYPE = U
NORAD_CAT_ID   = 67814
ELEMENT_SET_NO = 999
REV_AT_EPOCH   = 310
BSTAR          = -.54186022E-4
MEAN_MOTION_DOT = -.10504E-3
MEAN_MOTION_DDOT = 0

